{"fetched_at":"2026-06-13T17:21:47Z","count":1672,"tles":[{"name":"STRIX-7","line1":"1 69177U 26112A   26163.24878943  .00002947  00000+0  24140-3 0  9990","line2":"2 69177  44.9062 218.3867 0023629  18.9817 341.1931 15.01414674  3130","category":"Other"},{"name":"TERRASAR-X","line1":"1 31698U 07026A   26160.28753291  .00000433  00000+0  23833-4 0  9996","line2":"2 31698  97.4448 168.1064 0001684  80.8129 279.3296 15.19149435 52027","category":"Other"},{"name":"STRIX-6","line1":"1 68291U 26056A   26162.86500712  .00003117  00000+0  26724-3 0  9996","line2":"2 68291  50.2832  14.9533 0016385 223.0850 136.8817 15.00133694 12476","category":"Other"},{"name":"TERRA","line1":"1 25994U 99068A   26163.85047542  .00000357  00000+0  81719-4 0  9998","line2":"2 25994  97.9457 213.5685 0001241 206.6950 269.0097 14.61099845408976","category":"Other"},{"name":"SUOMI NPP","line1":"1 37849U 11061A   26163.82943395  .00000047  00000+0  43507-4 0  9994","line2":"2 37849  98.7954 104.7353 0001775  16.6889 343.4345 14.19516560757829","category":"Weather"},{"name":"THEOS","line1":"1 33396U 08049A   26163.88242405 -.00000322  00000+0 -13131-3 0  9996","line2":"2 33396  98.5578 221.3058 0001266  80.1875 279.9445 14.20131107917358","category":"Other"}]}